CCSDS_OMM_VERS = 2.0
CREATION_DATE  = 
ORIGINATOR     = 

OBJECT_NAME    = SL-16 R/B
OBJECT_ID      = 1993-016B
CENTER_NAME    = EARTH
REF_FRAME      = TEME
TIME_SYSTEM    = UTC
MEAN_ELEMENT_THEORY = SGP/SGP4

EPOCH          = 2026-01-19T22:36:17.489376
MEAN_MOTION    = 14.15293916
ECCENTRICITY   = .0008967
INCLINATION    = 71.0088
RA_OF_ASC_NODE = 317.5681
ARG_OF_PERICENTER = 26.2399
MEAN_ANOMALY   = 333.9176

EPHEMERIS_TYPE = 0
CLASSIFICATION_TYPE = U
NORAD_CAT_ID   = 22566
ELEMENT_SET_NO = 999
REV_AT_EPOCH   = 69527
BSTAR          = .92543895E-4
MEAN_MOTION_DOT = .133E-5
MEAN_MOTION_DDOT = 0

CCSDS_OMM_VERS = 2.0
CREATION_DATE  = 
ORIGINATOR     = 

OBJECT_NAME    = COSMOS 2242
OBJECT_ID      = 1993-024A
CENTER_NAME    = EARTH
REF_FRAME      = TEME
TIME_SYSTEM    = UTC
MEAN_ELEMENT_THEORY = SGP/SGP4

EPOCH          = 2026-01-19T21:21:26.784576
MEAN_MOTION    = 14.96295264
ECCENTRICITY   = .0017925
INCLINATION    = 82.5211
RA_OF_ASC_NODE = 313.3797
ARG_OF_PERICENTER = 106.9548
MEAN_ANOMALY   = 253.3641

EPHEMERIS_TYPE = 0
CLASSIFICATION_TYPE = U
NORAD_CAT_ID   = 22626
ELEMENT_SET_NO = 999
REV_AT_EPOCH   = 77309
BSTAR          = .23116377E-3
MEAN_MOTION_DOT = .2645E-4
MEAN_MOTION_DDOT = 0

CCSDS_OMM_VERS = 2.0
CREATION_DATE  = 
ORIGINATOR     = 

OBJECT_NAME    = SL-16 R/B
OBJECT_ID      = 1993-059B
CENTER_NAME    = EARTH
REF_FRAME      = TEME
TIME_SYSTEM    = UTC
MEAN_ELEMENT_THEORY = SGP/SGP4

EPOCH          = 2026-01-19T16:55:24.776832
MEAN_MOTION    = 14.17222929
ECCENTRICITY   = .0019512
INCLINATION    = 70.9909
RA_OF_ASC_NODE = 114.4288
ARG_OF_PERICENTER = 283.1347
MEAN_ANOMALY   = 76.7600

EPHEMERIS_TYPE = 0
CLASSIFICATION_TYPE = U
NORAD_CAT_ID   = 22803
ELEMENT_SET_NO = 999
REV_AT_EPOCH   = 67259
BSTAR          = .61917936E-4
MEAN_MOTION_DOT = .77E-6
MEAN_MOTION_DDOT = 0

CCSDS_OMM_VERS = 2.0
CREATION_DATE  = 
ORIGINATOR     = 

OBJECT_NAME    = ARIANE 40 R/B
OBJECT_ID      = 1993-061H
CENTER_NAME    = EARTH
REF_FRAME      = TEME
TIME_SYSTEM    = UTC
MEAN_ELEMENT_THEORY = SGP/SGP4

EPOCH          = 2026-01-19T19:36:10.382976
MEAN_MOTION    = 14.32827888
ECCENTRICITY   = .00116981
INCLINATION    = 98.5016
RA_OF_ASC_NODE = 89.6439
ARG_OF_PERICENTER = 71.7151
MEAN_ANOMALY   = 288.5306

EPHEMERIS_TYPE = 0
CLASSIFICATION_TYPE = U
NORAD_CAT_ID   = 22830
ELEMENT_SET_NO = 999
REV_AT_EPOCH   = 68710
BSTAR          = .90647531E-4
MEAN_MOTION_DOT = .204E-5
MEAN_MOTION_DDOT = 0

CCSDS_OMM_VERS = 2.0
CREATION_DATE  = 
ORIGINATOR     = 

OBJECT_NAME    = COSMOS 2278
OBJECT_ID      = 1994-023A
CENTER_NAME    = EARTH
REF_FRAME      = TEME
TIME_SYSTEM    = UTC
MEAN_ELEMENT_THEORY = SGP/SGP4

EPOCH          = 2026-01-19T22:32:52.333440
MEAN_MOTION    = 14.14365735
ECCENTRICITY   = .00064293
INCLINATION    = 71.0544
RA_OF_ASC_NODE = 277.0918
ARG_OF_PERICENTER = 107.5216
MEAN_ANOMALY   = 252.6610

EPHEMERIS_TYPE = 0
CLASSIFICATION_TYPE = U
NORAD_CAT_ID   = 23087
ELEMENT_SET_NO = 999
REV_AT_EPOCH   = 63791
BSTAR          = .48393268E-4
MEAN_MOTION_DOT = .45E-6
MEAN_MOTION_DDOT = 0

CCSDS_OMM_VERS = 2.0
CREATION_DATE  = 
ORIGINATOR     = 

OBJECT_NAME    = SL-16 R/B
OBJECT_ID      = 1994-023B
CENTER_NAME    = EARTH
REF_FRAME      = TEME
TIME_SYSTEM    = UTC
MEAN_ELEMENT_THEORY = SGP/SGP4

EPOCH          = 2026-01-19T20:48:02.947392
MEAN_MOTION    = 14.15006722
ECCENTRICITY   = .00037437
INCLINATION    = 70.9998
RA_OF_ASC_NODE = 173.4181
ARG_OF_PERICENTER = 332.0188
MEAN_ANOMALY   = 28.0733

EPHEMERIS_TYPE = 0
CLASSIFICATION_TYPE = U
NORAD_CAT_ID   = 23088
ELEMENT_SET_NO = 999
REV_AT_EPOCH   = 63918
BSTAR          = .326459E-4
MEAN_MOTION_DOT = .16E-6
MEAN_MOTION_DDOT = 0

CCSDS_OMM_VERS = 2.0
CREATION_DATE  = 
ORIGINATOR     = 

OBJECT_NAME    = SL-16 R/B
OBJECT_ID      = 1994-074B
CENTER_NAME    = EARTH
REF_FRAME      = TEME
TIME_SYSTEM    = UTC
MEAN_ELEMENT_THEORY = SGP/SGP4

EPOCH          = 2026-01-19T23:02:55.345056
MEAN_MOTION    = 14.79339097
ECCENTRICITY   = .00072356
INCLINATION    = 97.7165
RA_OF_ASC_NODE = 52.7393
ARG_OF_PERICENTER = 31.1510
MEAN_ANOMALY   = 36.0453

EPHEMERIS_TYPE = 0
CLASSIFICATION_TYPE = U
NORAD_CAT_ID   = 23343
ELEMENT_SET_NO = 999
REV_AT_EPOCH   = 68004
BSTAR          = .91062514E-4
MEAN_MOTION_DOT = .629E-5
MEAN_MOTION_DDOT = 0

CCSDS_OMM_VERS = 2.0
CREATION_DATE  = 
ORIGINATOR     = 

OBJECT_NAME    = SL-16 R/B
OBJECT_ID      = 1994-077B
CENTER_NAME    = EARTH
REF_FRAME      = TEME
TIME_SYSTEM    = UTC
MEAN_ELEMENT_THEORY = SGP/SGP4

EPOCH          = 2026-01-19T15:43:45.263136
MEAN_MOTION    = 14.15557422
ECCENTRICITY   = .00048354
INCLINATION    = 70.9833
RA_OF_ASC_NODE = 95.6505
ARG_OF_PERICENTER = 254.7671
MEAN_ANOMALY   = 105.2917

EPHEMERIS_TYPE = 0
CLASSIFICATION_TYPE = U
NORAD_CAT_ID   = 23405
ELEMENT_SET_NO = 999
REV_AT_EPOCH   = 60929
BSTAR          = .81054572E-4
MEAN_MOTION_DOT = .111E-5
MEAN_MOTION_DDOT = 0

CCSDS_OMM_VERS = 2.0
CREATION_DATE  = 
ORIGINATOR     = 

OBJECT_NAME    = ARIANE 40+ R/B
OBJECT_ID      = 1995-021B
CENTER_NAME    = EARTH
REF_FRAME      = TEME
TIME_SYSTEM    = UTC
MEAN_ELEMENT_THEORY = SGP/SGP4

EPOCH          = 2026-01-19T19:57:44.656704
MEAN_MOTION    = 14.39727559
ECCENTRICITY   = .00056849
INCLINATION    = 98.4594
RA_OF_ASC_NODE = 91.9520
ARG_OF_PERICENTER = 290.9776
MEAN_ANOMALY   = 181.9722

EPHEMERIS_TYPE = 0
CLASSIFICATION_TYPE = U
NORAD_CAT_ID   = 23561
ELEMENT_SET_NO = 999
REV_AT_EPOCH   = 61221
BSTAR          = .10833474E-3
MEAN_MOTION_DOT = .296E-5
MEAN_MOTION_DDOT = 0

CCSDS_OMM_VERS = 2.0
CREATION_DATE  = 
ORIGINATOR     = 

OBJECT_NAME    = SL-16 R/B
OBJECT_ID      = 1995-058B
CENTER_NAME    = EARTH
REF_FRAME      = TEME
TIME_SYSTEM    = UTC
MEAN_ELEMENT_THEORY = SGP/SGP4

EPOCH          = 2026-01-19T22:37:21.345024
MEAN_MOTION    = 14.15489507
ECCENTRICITY   = .00134155
INCLINATION    = 71.0220
RA_OF_ASC_NODE = 282.5994
ARG_OF_PERICENTER = 204.4245
MEAN_ANOMALY   = 155.6244

EPHEMERIS_TYPE = 0
CLASSIFICATION_TYPE = U
NORAD_CAT_ID   = 23705
ELEMENT_SET_NO = 999
REV_AT_EPOCH   = 56095
BSTAR          = -.64544271E-4
MEAN_MOTION_DOT = -.174E-5
MEAN_MOTION_DDOT = 0

CCSDS_OMM_VERS = 2.0
CREATION_DATE  = 
ORIGINATOR     = 

OBJECT_NAME    = SL-16 R/B
OBJECT_ID      = 1996-051B
CENTER_NAME    = EARTH
REF_FRAME      = TEME
TIME_SYSTEM    = UTC
MEAN_ELEMENT_THEORY = SGP/SGP4

EPOCH          = 2026-01-19T22:40:47.889408
MEAN_MOTION    = 14.12401647
ECCENTRICITY   = .00187781
INCLINATION    = 70.7588
RA_OF_ASC_NODE = 278.4163
ARG_OF_PERICENTER = 214.2246
MEAN_ANOMALY   = 145.7665

EPHEMERIS_TYPE = 0
CLASSIFICATION_TYPE = U
NORAD_CAT_ID   = 24298
ELEMENT_SET_NO = 999
REV_AT_EPOCH   = 51476
BSTAR          = .54958039E-4
MEAN_MOTION_DOT = .52E-6
MEAN_MOTION_DDOT = 0

CCSDS_OMM_VERS = 2.0
CREATION_DATE  = 
ORIGINATOR     = 

OBJECT_NAME    = ORBVIEW 2 (SEASTAR)
OBJECT_ID      = 1997-037A
CENTER_NAME    = EARTH
REF_FRAME      = TEME
TIME_SYSTEM    = UTC
MEAN_ELEMENT_THEORY = SGP/SGP4

EPOCH          = 2026-01-19T23:22:56.625600
MEAN_MOTION    = 14.35449112
ECCENTRICITY   = .00020888
INCLINATION    = 98.8486
RA_OF_ASC_NODE = 183.0183
ARG_OF_PERICENTER = 178.4131
MEAN_ANOMALY   = 181.7061

EPHEMERIS_TYPE = 0
CLASSIFICATION_TYPE = U
NORAD_CAT_ID   = 24883
ELEMENT_SET_NO = 999
REV_AT_EPOCH   = 50148
BSTAR          = .14961613E-3
MEAN_MOTION_DOT = .383E-5
MEAN_MOTION_DDOT = 0

