SL-16 R/B               
1 22566U 93016B   26019.94186909  .00000133  00000+0  92544-4 0  9998
2 22566  71.0088 317.5681 0008967  26.2399 333.9176 14.15293916695271
COSMOS 2242             
1 22626U 93024A   26019.88989334  .00002645  00000+0  23116-3 0  9998
2 22626  82.5211 313.3797 0017925 106.9548 253.3641 14.96295264773097
SL-16 R/B               
1 22803U 93059B   26019.70514788  .00000077  00000+0  61918-4 0  9991
2 22803  70.9909 114.4288 0019512 283.1347  76.7600 14.17222929672599
ARIANE 40 R/B           
1 22830U 93061H   26019.81678684  .00000204  00000+0  90648-4 0  9996
2 22830  98.5016  89.6439 0011698  71.7151 288.5306 14.32827888687107
COSMOS 2278             
1 23087U 94023A   26019.93949460  .00000045  00000+0  48393-4 0  9999
2 23087  71.0544 277.0918 0006429 107.5216 252.6610 14.14365735637917
SL-16 R/B               
1 23088U 94023B   26019.86670078  .00000016  00000+0  32646-4 0  9990
2 23088  70.9998 173.4181 0003743 332.0188  28.0733 14.15006722639180
SL-16 R/B               
1 23343U 94074B   26019.96036279  .00000629  00000+0  91063-4 0  9998
2 23343  97.7165  52.7393 0007235  31.1510  36.0453 14.79339097680040
SL-16 R/B               
1 23405U 94077B   26019.65538499  .00000111  00000+0  81055-4 0  9993
2 23405  70.9833  95.6505 0004835 254.7671 105.2917 14.15557422609295
ARIANE 40+ R/B          
1 23561U 95021B   26019.83176686  .00000296  00000+0  10833-3 0  9991
2 23561  98.4594  91.9520 0005684 290.9776 181.9722 14.39727559612211
SL-16 R/B               
1 23705U 95058B   26019.94260816 -.00000174  00000+0 -64544-4 0  9998
2 23705  71.0220 282.5994 0013415 204.4245 155.6244 14.15489507560951
SL-16 R/B               
1 24298U 96051B   26019.94499872  .00000052  00000+0  54958-4 0  9997
2 24298  70.7588 278.4163 0018778 214.2246 145.7665 14.12401647514762
ORBVIEW 2 (SEASTAR)     
1 24883U 97037A   26019.97426650  .00000383  00000+0  14962-3 0  9996
2 24883  98.8486 183.0183 0002088 178.4131 181.7061 14.35449112501483
